start=new Date('2021-09-29T00:00:00.000Z').valueOf();
sats=[{"TLE_LINE2":"2 44964  53.0569  31.7325 0001024 103.1929 256.9174 15.06397073 95818","MEAN_ELEMENT_THEORY":"SGP4","DECAY_DATE":null,"TLE_LINE1":"1 44964U 20001BC  21271.87435268  .00002553  00000-0  19020-3 0  9996","INCLINATION":"53.0569","NORAD_CAT_ID":"44964","PERIAPSIS":"546.513","REF_FRAME":"TEME","RA_OF_ASC_NODE":"31.7325","ARG_OF_PERICENTER":"103.1929","EPHEMERIS_TYPE":"0","SEMIMAJOR_AXIS":"6925.358","OBJECT_NAME":"STARLINK-1086","MEAN_MOTION_DDOT":"0.0000000000000","MEAN_ANOMALY":"256.9174","MEAN_MOTION":"15.06397073","COUNTRY_CODE":"US","ELEMENT_SET_NO":"999","OBJECT_ID":"2020-001BC","OBJECT_TYPE":"PAYLOAD","FILE":"3133126","BSTAR":"0.00019020000000","TIME_SYSTEM":"UTC","SITE":"AFETR","GP_ID":"185727984","RCS_SIZE":"LARGE","CENTER_NAME":"EARTH","APOAPSIS":"547.932","ECCENTRICITY":"0.00010240","EPOCH":"2021-09-28T20:59:04.071552","CLASSIFICATION_TYPE":"U","LAUNCH_DATE":"2020-01-07","PERIOD":"95.592","MEAN_MOTION_DOT":"0.00002553","REV_AT_EPOCH":"9581"},{"MEAN_ANOMALY":"254.1438","EPHEMERIS_TYPE":"0","SEMIMAJOR_AXIS":"6925.380","MEAN_MOTION_DDOT":"0.0000000000000","OBJECT_NAME":"STARLINK-1088","REF_FRAME":"TEME","RA_OF_ASC_NODE":"31.6228","ARG_OF_PERICENTER":"105.9686","PERIAPSIS":"546.391","NORAD_CAT_ID":"44966","INCLINATION":"53.0549","TLE_LINE2":"2 44966  53.0549  31.6228 0001233 105.9686 254.1438 15.06389881 95812","MEAN_ELEMENT_THEORY":"SGP4","DECAY_DATE":null,"TLE_LINE1":"1 44966U 20001BE  21271.89645333 -.00002892  00000-0 -17537-3 0  9995","PERIOD":"95.593","MEAN_MOTION_DOT":"-0.00002892","REV_AT_EPOCH":"9581","ECCENTRICITY":"0.00012330","CLASSIFICATION_TYPE":"U","EPOCH":"2021-09-28T21:30:53.567712","LAUNCH_DATE":"2020-01-07","APOAPSIS":"548.098","GP_ID":"185727986","RCS_SIZE":"LARGE","CENTER_NAME":"EARTH","BSTAR":"-0.00017537000000","FILE":"3133126","TIME_SYSTEM":"UTC","SITE":"AFETR","OBJECT_TYPE":"PAYLOAD","COUNTRY_CODE":"US","MEAN_MOTION":"15.06389881","ELEMENT_SET_NO":"999","OBJECT_ID":"2020-001BE"},{"OBJECT_ID":"2020-001BF","ELEMENT_SET_NO":"999","MEAN_MOTION":"15.06394196","COUNTRY_CODE":"US","OBJECT_TYPE":"PAYLOAD","SITE":"AFETR","TIME_SYSTEM":"UTC","BSTAR":"0.00001670200000","FILE":"3133126","CENTER_NAME":"EARTH","RCS_SIZE":"LARGE","GP_ID":"185728490","APOAPSIS":"548.051","LAUNCH_DATE":"2020-01-07","CLASSIFICATION_TYPE":"U","EPOCH":"2021-09-28T20:27:12.267648","ECCENTRICITY":"0.00011840","REV_AT_EPOCH":"9581","MEAN_MOTION_DOT":"-0.00000033","PERIOD":"95.593","TLE_LINE1":"1 44967U 20001BF  21271.85222532 -.00000033  00000-0  16702-4 0  9992","DECAY_DATE":null,"MEAN_ELEMENT_THEORY":"SGP4","TLE_LINE2":"2 44967  53.0562  31.8249 0001184  95.3616 264.7508 15.06394196 95813","INCLINATION":"53.0562","NORAD_CAT_ID":"44967","PERIAPSIS":"546.411","ARG_OF_PERICENTER":"95.3616","RA_OF_ASC_NODE":"31.8249","REF_FRAME":"TEME","OBJECT_NAME":"STARLINK-1089","MEAN_MOTION_DDOT":"0.0000000000000","SEMIMAJOR_AXIS":"6925.366","EPHEMERIS_TYPE":"0","MEAN_ANOMALY":"264.7508"},{"ECCENTRICITY":"0.00012080","LAUNCH_DATE":"2020-01-07","CLASSIFICATION_TYPE":"U","EPOCH":"2021-09-28T20:21:55.926144","REV_AT_EPOCH":"9581","MEAN_MOTION_DOT":"0.00000377","PERIOD":"95.593","RCS_SIZE":"LARGE","GP_ID":"185727982","CENTER_NAME":"EARTH","APOAPSIS":"548.099","OBJECT_TYPE":"PAYLOAD","TIME_SYSTEM":"UTC","FILE":"3133126","BSTAR":"0.00004422200000","SITE":"AFETR","COUNTRY_CODE":"US","MEAN_MOTION":"15.06384162","OBJECT_ID":"2020-001BG","ELEMENT_SET_NO":"999","EPHEMERIS_TYPE":"0","OBJECT_NAME":"STARLINK-1090","MEAN_MOTION_DDOT":"0.0000000000000","SEMIMAJOR_AXIS":"6925.397","MEAN_ANOMALY":"250.2831","REF_FRAME":"TEME","RA_OF_ASC_NODE":"31.8370","ARG_OF_PERICENTER":"109.8288","NORAD_CAT_ID":"44968","PERIAPSIS":"546.426","MEAN_ELEMENT_THEORY":"SGP4","TLE_LINE2":"2 44968  53.0559  31.8370 0001208 109.8288 250.2831 15.06384162 95819","TLE_LINE1":"1 44968U 20001BG  21271.84856396  .00000377  00000-0  44222-4 0  9991","DECAY_DATE":null,"INCLINATION":"53.0559"},{"MEAN_ANOMALY":"251.8109","EPHEMERIS_TYPE":"0","MEAN_MOTION_DDOT":"0.0000000000000","OBJECT_NAME":"STARLINK-1092","SEMIMAJOR_AXIS":"6925.339","RA_OF_ASC_NODE":"33.3604","REF_FRAME":"TEME","ARG_OF_PERICENTER":"108.3025","PERIAPSIS":"546.278","NORAD_CAT_ID":"44969","INCLINATION":"53.0558","MEAN_ELEMENT_THEORY":"SGP4","TLE_LINE2":"2 44969  53.0558  33.3604 0001337 108.3025 251.8109 15.06403017 95751","TLE_LINE1":"1 44969U 20001BH  21271.50942745  .00000479  00000-0  51036-4 0  9993","DECAY_DATE":null,"REV_AT_EPOCH":"9575","MEAN_MOTION_DOT":"0.00000479","PERIOD":"95.592","ECCENTRICITY":"0.00013370","LAUNCH_DATE":"2020-01-07","EPOCH":"2021-09-28T12:13:34.531680","CLASSIFICATION_TYPE":"U","APOAPSIS":"548.130","RCS_SIZE":"LARGE","GP_ID":"185714255","CENTER_NAME":"EARTH","TIME_SYSTEM":"UTC","BSTAR":"0.00005103600000","FILE":"3132662","SITE":"AFETR","OBJECT_TYPE":"PAYLOAD","MEAN_MOTION":"15.06403017","COUNTRY_CODE":"US","ELEMENT_SET_NO":"999","OBJECT_ID":"2020-001BH"},{"EPHEMERIS_TYPE":"0","SEMIMAJOR_AXIS":"6925.345","OBJECT_NAME":"STARLINK-1093","MEAN_MOTION_DDOT":"0.0000000000000","MEAN_ANOMALY":"254.1649","REF_FRAME":"TEME","RA_OF_ASC_NODE":"31.6771","ARG_OF_PERICENTER":"105.9483","NORAD_CAT_ID":"44970","PERIAPSIS":"546.312","TLE_LINE2":"2 44970  53.0566  31.6771 0001296 105.9483 254.1649 15.06401250 95801","MEAN_ELEMENT_THEORY":"SGP4","DECAY_DATE":null,"TLE_LINE1":"1 44970U 20001BJ  21271.88538754  .00001964  00000-0  15070-3 0  9994","INCLINATION":"53.0566","ECCENTRICITY":"0.00012960","CLASSIFICATION_TYPE":"U","EPOCH":"2021-09-28T21:14:57.483456","LAUNCH_DATE":"2020-01-07","MEAN_MOTION_DOT":"0.00001964","PERIOD":"95.592","REV_AT_EPOCH":"9580","GP_ID":"185728000","RCS_SIZE":"LARGE","CENTER_NAME":"EARTH","APOAPSIS":"548.107","OBJECT_TYPE":"PAYLOAD","BSTAR":"0.00015070000000","FILE":"3133127","TIME_SYSTEM":"UTC","SITE":"AFETR","COUNTRY_CODE":"US","MEAN_MOTION":"15.06401250","OBJECT_ID":"2020-001BJ","ELEMENT_SET_NO":"999"},{"GP_ID":"185714756","RCS_SIZE":"LARGE","CENTER_NAME":"EARTH","APOAPSIS":"548.358","ECCENTRICITY":"0.00016050","EPOCH":"2021-09-28T12:34:49.107072","CLASSIFICATION_TYPE":"U","LAUNCH_DATE":"2020-01-07","PERIOD":"95.593","MEAN_MOTION_DOT":"0.00000487","REV_AT_EPOCH":"9576","COUNTRY_CODE":"US","MEAN_MOTION":"15.06389128","OBJECT_ID":"2020-001BL","ELEMENT_SET_NO":"999","OBJECT_TYPE":"PAYLOAD","BSTAR":"0.00005160000000","FILE":"3132662","TIME_SYSTEM":"UTC","SITE":"AFETR","REF_FRAME":"TEME","RA_OF_ASC_NODE":"33.2915","ARG_OF_PERICENTER":"109.6659","EPHEMERIS_TYPE":"0","SEMIMAJOR_AXIS":"6925.382","MEAN_MOTION_DDOT":"0.0000000000000","OBJECT_NAME":"STARLINK-1107","MEAN_ANOMALY":"250.4503","TLE_LINE2":"2 44972  53.0548  33.2915 0001605 109.6659 250.4503 15.06389128 95763","MEAN_ELEMENT_THEORY":"SGP4","DECAY_DATE":null,"TLE_LINE1":"1 44972U 20001BL  21271.52417948  .00000487  00000-0  51600-4 0  9997","INCLINATION":"53.0548","NORAD_CAT_ID":"44972","PERIAPSIS":"546.135"},{"OBJECT_ID":"2020-001BM","ELEMENT_SET_NO":"999","COUNTRY_CODE":"US","MEAN_MOTION":"15.06391656","OBJECT_TYPE":"PAYLOAD","SITE":"AFETR","TIME_SYSTEM":"UTC","FILE":"3133130","BSTAR":"0.00007713100000","CENTER_NAME":"EARTH","RCS_SIZE":"LARGE","GP_ID":"185728542","APOAPSIS":"548.167","LAUNCH_DATE":"2020-01-07","CLASSIFICATION_TYPE":"U","EPOCH":"2021-09-28T21:36:12.423456","ECCENTRICITY":"0.00013400","REV_AT_EPOCH":"9581","MEAN_MOTION_DOT":"0.00000867","PERIOD":"95.593","TLE_LINE1":"1 44973U 20001BM  21271.90014379  .00000867  00000-0  77131-4 0  9990","DECAY_DATE":null,"MEAN_ELEMENT_THEORY":"SGP4","TLE_LINE2":"2 44973  53.0565  31.6071 0001340 101.3754 258.7385 15.06391656 95813","INCLINATION":"53.0565","NORAD_CAT_ID":"44973","PERIAPSIS":"546.311","ARG_OF_PERICENTER":"101.3754","RA_OF_ASC_NODE":"31.6071","REF_FRAME":"TEME","OBJECT_NAME":"STARLINK-1115","MEAN_MOTION_DDOT":"0.0000000000000","SEMIMAJOR_AXIS":"6925.374","EPHEMERIS_TYPE":"0","MEAN_ANOMALY":"258.7385"},{"MEAN_MOTION_DOT":"0.00001553","PERIOD":"95.593","REV_AT_EPOCH":"9209","EPOCH":"2021-09-28T13:01:22.190880","CLASSIFICATION_TYPE":"U","LAUNCH_DATE":"2020-01-29","ECCENTRICITY":"0.00013830","APOAPSIS":"548.196","CENTER_NAME":"EARTH","GP_ID":"185714012","RCS_SIZE":"LARGE","SITE":"AFETR","FILE":"3132662","BSTAR":"0.00012317000000","TIME_SYSTEM":"UTC","OBJECT_TYPE":"PAYLOAD","ELEMENT_SET_NO":"999","OBJECT_ID":"2020-006A","MEAN_MOTION":"15.06391980","COUNTRY_CODE":"US","MEAN_ANOMALY":"262.3560","SEMIMAJOR_AXIS":"6925.373","MEAN_MOTION_DDOT":"0.0000000000000","OBJECT_NAME":"STARLINK-1132","EPHEMERIS_TYPE":"0","ARG_OF_PERICENTER":"97.7586","REF_FRAME":"TEME","RA_OF_ASC_NODE":"353.2142","PERIAPSIS":"546.280","NORAD_CAT_ID":"45044","INCLINATION":"53.0563","DECAY_DATE":null,"TLE_LINE1":"1 45044U 20006A   21271.54261795  .00001553  00000-0  12317-3 0  9998","TLE_LINE2":"2 45044  53.0563 353.2142 0001383  97.7586 262.3560 15.06391980 92094","MEAN_ELEMENT_THEORY":"SGP4"},{"APOAPSIS":"548.090","GP_ID":"185714262","RCS_SIZE":"LARGE","CENTER_NAME":"EARTH","MEAN_MOTION_DOT":"0.00001923","PERIOD":"95.592","REV_AT_EPOCH":"9181","ECCENTRICITY":"0.00012570","CLASSIFICATION_TYPE":"U","EPOCH":"2021-09-28T12:42:47.146176","LAUNCH_DATE":"2020-01-29","MEAN_MOTION":"15.06398039","COUNTRY_CODE":"US","ELEMENT_SET_NO":"999","OBJECT_ID":"2020-006B","BSTAR":"0.00014799000000","FILE":"3132662","TIME_SYSTEM":"UTC","SITE":"AFETR","OBJECT_TYPE":"PAYLOAD","RA_OF_ASC_NODE":"13.2707","REF_FRAME":"TEME","ARG_OF_PERICENTER":"97.6546","MEAN_ANOMALY":"262.4586","EPHEMERIS_TYPE":"0","SEMIMAJOR_AXIS":"6925.355","MEAN_MOTION_DDOT":"0.0000000000000","OBJECT_NAME":"STARLINK-1120","INCLINATION":"53.0558","TLE_LINE2":"2 45045  53.0558  13.2707 0001257  97.6546 262.4586 15.06398039 91814","MEAN_ELEMENT_THEORY":"SGP4","DECAY_DATE":null,"TLE_LINE1":"1 45045U 20006B   21271.52971234  .00001923  00000-0  14799-3 0  9990","PERIAPSIS":"546.349","NORAD_CAT_ID":"45045"}];
